[{"OBJECT_NAME":"STARLINK-34832","OBJECT_ID":"2025-195T","EPOCH":"2026-03-09T19:59:33.447264","MEAN_MOTION":15.30188082,"ECCENTRICITY":9.429e-5,"INCLINATION":53.1585,"RA_OF_ASC_NODE":257.6585,"ARG_OF_PERICENTER":102.5697,"MEAN_ANOMALY":257.5409,"EPHEMERIS_TYPE":0,"CLASSIFICATION_TYPE":"U","NORAD_CAT_ID":65475,"ELEMENT_SET_NO":999,"REV_AT_EPOCH":2999,"BSTAR":0.00084603722,"MEAN_MOTION_DOT":0.00024772,"MEAN_MOTION_DDOT":0},{"OBJECT_NAME":"OV1-9 R\/B","OBJECT_ID":"1966-111D","EPOCH":"2026-03-09T11:11:11.790816","MEAN_MOTION":10.49794392,"ECCENTRICITY":0.22219732,"INCLINATION":99.1017,"RA_OF_ASC_NODE":33.3571,"ARG_OF_PERICENTER":215.4287,"MEAN_ANOMALY":127.6991,"EPHEMERIS_TYPE":0,"CLASSIFICATION_TYPE":"U","NORAD_CAT_ID":2622,"ELEMENT_SET_NO":999,"REV_AT_EPOCH":23443,"BSTAR":0.00023551925,"MEAN_MOTION_DOT":5.76e-6,"MEAN_MOTION_DDOT":0}]
